{"type": "FeatureCollection", "features": [{"type": "Feature", "properties": {"norad_id": 24946, "name": "IRIDIUM 33", "group": "iridium-33-debris", "lat": -16.048108439273317, "lon": 65.23461391396417, "alt_km": 784.8527536770716, "timestamp": "2025-12-17T09:00:17.532781+00:00", "meta": {"OBJECT_NAME": "IRIDIUM 33", "OBJECT_ID": "1997-051C", "EPOCH": "2025-12-16T18:01:06.095136", "MEAN_MOTION": 14.35040316, "ECCENTRICITY": 0.00075097, "INCLINATION": 86.3869, "RA_OF_ASC_NODE": 66.5381, "ARG_OF_PERICENTER": 186.4465, "MEAN_ANOMALY": 173.6635, "EPHEMERIS_TYPE": 0, "CLASSIFICATION_TYPE": "U", "NORAD_CAT_ID": 24946, "ELEMENT_SET_NO": 999, "REV_AT_EPOCH": 47892, "BSTAR": 0.00010229883, "MEAN_MOTION_DOT": 3.11e-06, "MEAN_MOTION_DDOT": 0}, "tle": {"line1": "1 24946U 97051C   25350.75076499  .00000311  00000+0  10230-3 0  9992", "line2": "2 24946  86.3869  66.5381 0007509 186.4465 173.6635 14.35040316478929"}}, "geometry": {"type": "Point", "coordinates": [65.23461391396417, -16.048108439273317]}}, {"type": "Feature", "properties": {"norad_id": 33773, "name": "IRIDIUM 33 DEB", "group": "iridium-33-debris", "lat": 77.37550691921588, "lon": 74.94677895854805, "alt_km": 735.2471187396841, "timestamp": "2025-12-17T09:00:17.532807+00:00", "meta": {"OBJECT_NAME": "IRIDIUM 33 DEB", "OBJECT_ID": "1997-051L", "EPOCH": "2025-12-16T22:39:41.403744", "MEAN_MOTION": 14.43266321, "ECCENTRICITY": 0.00128699, "INCLINATION": 86.4007, "RA_OF_ASC_NODE": 58.8078, "ARG_OF_PERICENTER": 134.0853, "MEAN_ANOMALY": 226.141, "EPHEMERIS_TYPE": 0, "CLASSIFICATION_TYPE": "U", "NORAD_CAT_ID": 33773, "ELEMENT_SET_NO": 999, "REV_AT_EPOCH": 88408, "BSTAR": 0.0002665068, "MEAN_MOTION_DOT": 9.17e-06, "MEAN_MOTION_DDOT": 0}, "tle": {"line1": "1 33773U 97051L   25350.94422921  .00000917  00000+0  26651-3 0  9992", "line2": "2 33773  86.4007  58.8078 0012869 134.0853 226.1410 14.43266321884082"}}, "geometry": {"type": "Point", "coordinates": [74.94677895854805, 77.37550691921588]}}, {"type": "Feature", "properties": {"norad_id": 33775, "name": "IRIDIUM 33 DEB", "group": "iridium-33-debris", "lat": 48.08112175823972, "lon": -136.4871234729515, "alt_km": 739.0178615517889, "timestamp": "2025-12-17T09:00:17.532821+00:00", "meta": {"OBJECT_NAME": "IRIDIUM 33 DEB", "OBJECT_ID": "1997-051N", "EPOCH": "2025-12-16T22:57:10.181376", "MEAN_MOTION": 14.41477634, "ECCENTRICITY": 0.00147333, "INCLINATION": 86.3634, "RA_OF_ASC_NODE": 47.7535, "ARG_OF_PERICENTER": 141.846, "MEAN_ANOMALY": 337.8084, "EPHEMERIS_TYPE": 0, "CLASSIFICATION_TYPE": "U", "NORAD_CAT_ID": 33775, "ELEMENT_SET_NO": 999, "REV_AT_EPOCH": 88201, "BSTAR": 0.00027617117, "MEAN_MOTION_DOT": 9.17e-06, "MEAN_MOTION_DDOT": 0}, "tle": {"line1": "1 33775U 97051N   25350.95636784  .00000917  00000+0  27617-3 0  9992", "line2": "2 33775  86.3634  47.7535 0014733 141.8460 337.8084 14.41477634882013"}}, "geometry": {"type": "Point", "coordinates": [-136.4871234729515, 48.08112175823972]}}, {"type": "Feature", "properties": {"norad_id": 33776, "name": "IRIDIUM 33 DEB", "group": "iridium-33-debris", "lat": -52.27831554055827, "lon": 74.16588916612389, "alt_km": 778.5243995195715, "timestamp": "2025-12-17T09:00:17.532834+00:00", "meta": {"OBJECT_NAME": "IRIDIUM 33 DEB", "OBJECT_ID": "1997-051P", "EPOCH": "2025-12-17T00:02:05.456256", "MEAN_MOTION": 14.38242699, "ECCENTRICITY": 0.00148629, "INCLINATION": 86.4038, "RA_OF_ASC_NODE": 78.9864, "ARG_OF_PERICENTER": 176.3786, "MEAN_ANOMALY": 357.2171, "EPHEMERIS_TYPE": 0, "CLASSIFICATION_TYPE": "U", "NORAD_CAT_ID": 33776, "ELEMENT_SET_NO": 999, "REV_AT_EPOCH": 88143, "BSTAR": 0.00024087301, "MEAN_MOTION_DOT": 7.52e-06, "MEAN_MOTION_DDOT": 0}, "tle": {"line1": "1 33776U 97051P   25351.00145204  .00000752  00000+0  24087-3 0  9997", "line2": "2 33776  86.4038  78.9864 0014862 176.3786 357.2171 14.38242699881436"}}, "geometry": {"type": "Point", "coordinates": [74.16588916612389, -52.27831554055827]}}, {"type": "Feature", "properties": {"norad_id": 33777, "name": "IRIDIUM 33 DEB", "group": "iridium-33-debris", "lat": 24.925204225443167, "lon": 34.87398507682459, "alt_km": 710.1538762054715, "timestamp": "2025-12-17T09:00:17.532845+00:00", "meta": {"OBJECT_NAME": "IRIDIUM 33 DEB", "OBJECT_ID": "1997-051Q", "EPOCH": "2025-12-16T14:44:32.574624", "MEAN_MOTION": 14.55643201, "ECCENTRICITY": 0.00054167, "INCLINATION": 86.3785, "RA_OF_ASC_NODE": 33.5183, "ARG_OF_PERICENTER": 231.3844, "MEAN_ANOMALY": 128.6879, "EPHEMERIS_TYPE": 0, "CLASSIFICATION_TYPE": "U", "NORAD_CAT_ID": 33777, "ELEMENT_SET_NO": 999, "REV_AT_EPOCH": 88590, "BSTAR": 0.0006347457, "MEAN_MOTION_DOT": 2.791e-05, "MEAN_MOTION_DDOT": 0}, "tle": {"line1": "1 33777U 97051Q   25350.61426591  .00002791  00000+0  63475-3 0  9994", "line2": "2 33777  86.3785  33.5183 0005416 231.3844 128.6879 14.55643201885902"}}, "geometry": {"type": "Point", "coordinates": [34.87398507682459, 24.925204225443167]}}, {"type": "Feature", "properties": {"norad_id": 33850, "name": "IRIDIUM 33 DEB", "group": "iridium-33-debris", "lat": 55.88577760226668, "lon": -157.23335186317448, "alt_km": 737.8297297203853, "timestamp": "2025-12-17T09:00:17.532857+00:00", "meta": {"OBJECT_NAME": "IRIDIUM 33 DEB", "OBJECT_ID": "1997-051T", "EPOCH": "2025-12-16T23:02:48.261120", "MEAN_MOTION": 14.42155288, "ECCENTRICITY": 0.00126508, "INCLINATION": 86.3414, "RA_OF_ASC_NODE": 28.3648, "ARG_OF_PERICENTER": 148.2103, "MEAN_ANOMALY": 342.9202, "EPHEMERIS_TYPE": 0, "CLASSIFICATION_TYPE": "U", "NORAD_CAT_ID": 33850, "ELEMENT_SET_NO": 999, "REV_AT_EPOCH": 88213, "BSTAR": 0.00028004209, "MEAN_MOTION_DOT": 9.42e-06, "MEAN_MOTION_DDOT": 0}, "tle": {"line1": "1 33850U 97051T   25350.96028080  .00000942  00000+0  28004-3 0  9990", "line2": "2 33850  86.3414  28.3648 0012650 148.2103 342.9202 14.42155288882135"}}, "geometry": {"type": "Point", "coordinates": [-157.23335186317448, 55.88577760226668]}}, {"type": "Feature", "properties": {"norad_id": 33853, "name": "IRIDIUM 33 DEB", "group": "iridium-33-debris", "lat": 32.83902417266984, "lon": 165.1902687847793, "alt_km": 851.8589486291294, "timestamp": "2025-12-17T09:00:17.532868+00:00", "meta": {"OBJECT_NAME": "IRIDIUM 33 DEB", "OBJECT_ID": "1997-051W", "EPOCH": "2025-12-16T23:58:17.677344", "MEAN_MOTION": 13.99087192, "ECCENTRICITY": 0.02070549, "INCLINATION": 85.9997, "RA_OF_ASC_NODE": 347.9438, "ARG_OF_PERICENTER": 222.6309, "MEAN_ANOMALY": 192.0216, "EPHEMERIS_TYPE": 0, "CLASSIFICATION_TYPE": "U", "NORAD_CAT_ID": 33853, "ELEMENT_SET_NO": 999, "REV_AT_EPOCH": 85405, "BSTAR": 0.0014446517, "MEAN_MOTION_DOT": 2.528e-05, "MEAN_MOTION_DDOT": 0}, "tle": {"line1": "1 33853U 97051W   25350.99881571  .00002528  00000+0  14447-2 0  9995", "line2": "2 33853  85.9997 347.9438 0207054 222.6309 192.0216 13.99087192854053"}}, "geometry": {"type": "Point", "coordinates": [165.1902687847793, 32.83902417266984]}}, {"type": "Feature", "properties": {"norad_id": 33860, "name": "IRIDIUM 33 DEB", "group": "iridium-33-debris", "lat": 61.16841379285779, "lon": -161.411271345769, "alt_km": 667.0543793771003, "timestamp": "2025-12-17T09:00:17.532879+00:00", "meta": {"OBJECT_NAME": "IRIDIUM 33 DEB", "OBJECT_ID": "1997-051AD", "EPOCH": "2025-12-16T20:10:17.664672", "MEAN_MOTION": 14.6742014, "ECCENTRICITY": 0.00069329, "INCLINATION": 86.3832, "RA_OF_ASC_NODE": 25.4234, "ARG_OF_PERICENTER": 342.8296, "MEAN_ANOMALY": 192.7464, "EPHEMERIS_TYPE": 0, "CLASSIFICATION_TYPE": "U", "NORAD_CAT_ID": 33860, "ELEMENT_SET_NO": 999, "REV_AT_EPOCH": 88782, "BSTAR": 0.00087524294, "MEAN_MOTION_DOT": 4.973e-05, "MEAN_MOTION_DDOT": 0}, "tle": {"line1": "1 33860U 97051AD  25350.84048223  .00004973  00000+0  87524-3 0  9999", "line2": "2 33860  86.3832  25.4234 0006932 342.8296 192.7464 14.67420140887821"}}, "geometry": {"type": "Point", "coordinates": [-161.411271345769, 61.16841379285779]}}, {"type": "Feature", "properties": {"norad_id": 33862, "name": "IRIDIUM 33 DEB", "group": "iridium-33-debris", "lat": -9.617202168669303, "lon": -143.9036383931229, "alt_km": 693.5174282776861, "timestamp": "2025-12-17T09:00:17.532889+00:00", "meta": {"OBJECT_NAME": "IRIDIUM 33 DEB", "OBJECT_ID": "1997-051AF", "EPOCH": "2025-12-16T16:22:06.218688", "MEAN_MOTION": 14.69541071, "ECCENTRICITY": 0.00530982, "INCLINATION": 86.4093, "RA_OF_ASC_NODE": 35.7923, "ARG_OF_PERICENTER": 56.0255, "MEAN_ANOMALY": 68.2506, "EPHEMERIS_TYPE": 0, "CLASSIFICATION_TYPE": "U", "NORAD_CAT_ID": 33862, "ELEMENT_SET_NO": 999, "REV_AT_EPOCH": 88881, "BSTAR": 0.0010087056, "MEAN_MOTION_DOT": 6.14e-05, "MEAN_MOTION_DDOT": 0}, "tle": {"line1": "1 33862U 97051AF  25350.68201642  .00006140  00000+0  10087-2 0  9996", "line2": "2 33862  86.4093  35.7923 0053098  56.0255  68.2506 14.69541071888819"}}, "geometry": {"type": "Point", "coordinates": [-143.9036383931229, -9.617202168669303]}}, {"type": "Feature", "properties": {"norad_id": 33866, "name": "IRIDIUM 33 DEB", "group": "iridium-33-debris", "lat": -58.46192331553358, "lon": -82.87327310483896, "alt_km": 816.5393590803333, "timestamp": "2025-12-17T09:00:17.532900+00:00", "meta": {"OBJECT_NAME": "IRIDIUM 33 DEB", "OBJECT_ID": "1997-051AK", "EPOCH": "2025-12-16T19:01:21.853056", "MEAN_MOTION": 14.25288493, "ECCENTRICITY": 0.01147919, "INCLINATION": 86.3001, "RA_OF_ASC_NODE": 91.321, "ARG_OF_PERICENTER": 148.5346, "MEAN_ANOMALY": 341.3253, "EPHEMERIS_TYPE": 0, "CLASSIFICATION_TYPE": "U", "NORAD_CAT_ID": 33866, "ELEMENT_SET_NO": 999, "REV_AT_EPOCH": 86868, "BSTAR": 0.00046900019, "MEAN_MOTION_DOT": 1.202e-05, "MEAN_MOTION_DDOT": 0}, "tle": {"line1": "1 33866U 97051AK  25350.79261404  .00001202  00000+0  46900-3 0  9992", "line2": "2 33866  86.3001  91.3210 0114791 148.5346 341.3253 14.25288493868689"}}, "geometry": {"type": "Point", "coordinates": [-82.87327310483896, -58.46192331553358]}}]}